{
  "norad_id": 57895,
  "name": "STARLINK-30467",
  "history": [
    {
      "epoch": "2026-03-28T16:10:56.714592Z",
      "apogee_km": 486.20322735792706,
      "perigee_km": 484.8342025890179,
      "latitude_deg": 8.851399443262869e-07,
      "longitude_deg": 137.82336590191372,
      "height_km": 485.29124611253565,
      "semi_major_axis_km": 6863.655714973472,
      "eccentricity": 9.973e-05,
      "inclination_deg": 42.9987,
      "raan_deg": 206.651,
      "arg_perigee_deg": 270.315,
      "mean_anomaly_deg": 89.7587,
      "mean_motion_rev_day": 15.26755614
    }
  ]
}